BANDWAGON-2 OBJECT D    
1 62380U 24247D   26068.52261193  .00011259  00000+0  40119-3 0  9994
2 62380  44.9954 115.6710 0003488 351.1453   8.9368 15.29076102 67732
STARLINK-32812          
1 63038U 25034K   26068.80983473  .00025578  00000+0  87294-3 0  9997
2 63038  53.1576 257.6733 0001018  82.7818 277.3298 15.30192387 59108
